ATLAS CENTAUR 2         
1 00694U 63047A   26199.23560349  .00000440  00000+0  40502-4 0  9990
2 00694  30.3516 185.7512 0545670 151.3357 211.8397 14.12567071150090
THOR AGENA D R/B        
1 00733U 64002A   26199.48402647  .00000064  00000+0  40124-4 0  9991
2 00733  99.1156 219.9042 0031925 236.6938 123.1187 14.34076954257044
SL-3 R/B                
1 00877U 64053B   26199.60291331  .00000023  00000+0  28780-4 0  9995
2 00877  65.0780 307.3974 0080141 251.2405 107.9987 14.61440599285926
SL-8 R/B                
1 02802U 67045B   26199.15634759  .00000128  00000+0  43025-4 0  9999
2 02802  74.0110 104.4187 0063064  80.2521 280.5752 14.45696279107874
SL-8 R/B                
1 03230U 68040B   26199.64823680  .00001376  00000+0  10228-3 0  9992
2 03230  74.0290  45.9403 0024913 193.2100 166.8440 15.03949125109695
OAO 2                   
1 03597U 68110A   26199.58077139  .00000067  00000+0  23016-4 0  9995
2 03597  34.9928 254.3908 0005317 173.1576 186.9188 14.47362406 38074
ISIS 1                  
1 03669U 69009A   26199.26100202  .00000067  00000+0  39661-4 0  9999
2 03669  88.4452 140.9879 1707182 185.4664 172.5351 11.30436768363280
SERT 2                  
1 04327U 70009A   26199.27679745 -.00000013  00000+0  38514-4 0  9995
2 04327  99.2839 135.3218 0004684 180.7897 344.1389 13.58741088797621
SL-3 R/B                
1 05118U 71028B   26199.57890448  .00034804  00000+0  25654-3 0  9998
2 05118  81.2297 248.9694 0014749 170.4836 189.6706 15.72698892  9173
ASTEX 1                 
1 05560U 71089A   26199.45322708  .00000239  00000+0  60870-4 0  9997
2 05560  92.7009 193.9258 0015912  11.8657 348.2921 14.50872912881261
SL-8 R/B                
1 05730U 71119B   26199.28830186  .00003837  00000+0  19766-3 0  9999
2 05730  73.8875 291.1536 0542626 230.8570 124.3173 14.39758454674279
OAO 3 (COPERNICUS)      
1 06153U 72065A   26199.64246374  .00000105  00000+0  25909-4 0  9992
2 06153  35.0056 271.1753 0006247 156.6007 359.3761 14.60075750865341
ATLAS CENTAUR R/B       
1 06155U 72065B   26199.48798026  .00000311  00000+0  45590-4 0  9999
2 06155  35.0008 259.0355 0033268  30.5275 329.7355 14.77967946860624
SL-8 R/B                
1 08459U 75112B   26199.55004142  .00000117  00000+0  47162-4 0  9992
2 08459  74.0609 138.1769 0016065 200.2366 159.8154 14.38259076650689
SL-3 R/B                
1 10114U 77057B   26199.56444851  .00005680  00000+0  10879-3 0  9993
2 10114  97.5859  17.6412 0007551 158.5527 201.6041 15.48452682688566
SEASAT 1                
1 10967U 78064A   26199.50339723 -.00000018  00000+0  33414-4 0  9995
2 10967 108.0181  40.0300 0001057 260.6969  99.4057 14.46261012525421
SL-14 R/B               
1 11267U 79011B   26199.36054413  .00000268  00000+0  23893-4 0  9992
2 11267  82.5258 332.5692 0015480 346.5052  13.5752 14.92039554548262
SL-8 R/B                
1 11574U 79089B   26199.20729584  .00000080  00000+0  32077-4 0  9995
2 11574  74.0669 209.4327 0016133 343.6834  16.3801 14.42415417454920
SL-14 R/B               
1 11672U 80005B   26199.39267705  .00000276  00000+0  25200-4 0  9993
2 11672  82.5139 183.2384 0017343  87.8448 272.4757 14.91051581495965
SL-8 R/B                
1 12139U 81003B   26199.33417417  .00014356  00000+0  33980-3 0  9999
2 12139  82.9372 168.8150 0249895  82.7570 280.1995 15.15148618334435
SL-3 R/B                
1 12465U 81046B   26199.54547036  .00006391  00000+0  13512-3 0  9991
2 12465  81.2316 132.2765 0015664 284.3406  75.6099 15.44825518458619
SL-3 R/B                
1 12904U 81103B   26199.60248882  .00001974  00000+0  83947-4 0  9999
2 12904  81.1566  59.7168 0012260 199.8879 160.1877 15.22502053993144
SL-3 R/B                
1 13068U 82013B   26199.56420695  .00001981  00000+0  82584-4 0  9995
2 13068  81.1736   7.2191 0022922  97.6278 262.7559 15.22975035424265
SL-3 R/B                
1 13154U 82039B   26199.63022969  .00001397  00000+0  82165-4 0  9995
2 13154  81.1512  64.7635 0028661 246.7123 113.1086 15.10708401401409
SL-3 R/B                
1 13403U 82079B   26199.52668129  .00002422  00000+0  92247-4 0  9990
2 13403  81.1445  38.4070 0024934  82.8575 277.5492 15.26031291397640
SL-14 R/B               
1 13553U 82092B   26199.02184293  .00000201  00000+0  19803-4 0  9991
2 13553  82.5670  19.4448 0019162 225.7301 252.4286 14.86765948348299
SL-3 R/B                
1 13819U 83010B   26199.05391483  .00008015  00000+0  14222-3 0  9991
2 13819  81.0997 201.9256 0013068 312.7112  47.3033 15.49957030378111
SL-3 R/B                
1 14208U 83075B   26199.50230756  .00005501  00000+0  13443-3 0  9991
2 14208  97.6108 209.2987 0022342 118.7048 241.6447 15.41018336350285
COSMOS 1536             
1 14699U 84013A   26199.39109772  .00003850  00000+0  15093-3 0  9996
2 14699  82.5463 337.7571 0014222 177.0394 183.0931 15.25367207292538
SL-14 R/B               
1 14820U 84027B   26199.25552796  .00000208  00000+0  20999-4 0  9996
2 14820  82.5429 122.5843 0016332 260.3964  99.5408 14.86080160267023
